[{"OBJECT_NAME":"STARLINK-4794","OBJECT_ID":"2022-114AM","EPOCH":"2026-03-09T22:33:00.750528","MEAN_MOTION":15.08849404,"ECCENTRICITY":9.939e-5,"INCLINATION":53.2166,"RA_OF_ASC_NODE":292.6954,"ARG_OF_PERICENTER":90.6773,"MEAN_ANOMALY":269.4333,"EPHEMERIS_TYPE":0,"CLASSIFICATION_TYPE":"U","NORAD_CAT_ID":53853,"ELEMENT_SET_NO":999,"REV_AT_EPOCH":19301,"BSTAR":-1.8469315e-5,"MEAN_MOTION_DOT":-5.82e-6,"MEAN_MOTION_DDOT":0},{"OBJECT_NAME":"COSMOS 2251 DEB","OBJECT_ID":"1993-036KP","EPOCH":"2026-03-09T11:34:45.143616","MEAN_MOTION":14.98033379,"ECCENTRICITY":0.0061647,"INCLINATION":73.9497,"RA_OF_ASC_NODE":73.2248,"ARG_OF_PERICENTER":244.1722,"MEAN_ANOMALY":240.8942,"EPHEMERIS_TYPE":0,"CLASSIFICATION_TYPE":"U","NORAD_CAT_ID":34118,"ELEMENT_SET_NO":999,"REV_AT_EPOCH":90473,"BSTAR":0.001884933,"MEAN_MOTION_DOT":0.00023205,"MEAN_MOTION_DDOT":0}]
